{
  "norad_id": 56768,
  "name": "STARLINK-6198",
  "history": [
    {
      "epoch": "2026-03-28T19:50:03.027552",
      "apogee_km": 573.9642842031244,
      "perigee_km": 570.1297286830895,
      "latitude_deg": 69.15979087777848,
      "longitude_deg": -63.86330272001214,
      "semi_major_axis_km": 6950.184006443107,
      "eccentricity": 0.00027586,
      "inclination_deg": 69.9983,
      "raan_deg": 276.0664,
      "arg_perigee_deg": 273.0157,
      "mean_anomaly_deg": 87.0687,
      "mean_motion_rev_day": 14.98332873
    }
  ]
}